IRIDIUM 33              
1 24946U 97051C   24274.88716938  .00001099  00000+0  38278-3 0  9995
2 24946  86.3829 251.8061 0007210 188.1032 172.0048 14.34532192415566
